{
    "links": {
        "self": "http://www.neowsapp.com/rest/v1/neo/3765700?api_key=iIulBulltgU6a56xZRHN4H3l9WmuAYTsLGpBGhQ2"
    },
    "id": "3765700",
    "neo_reference_id": "3765700",
    "name": "(2016 XB18)",
    "designation": "2016 XB18",
    "nasa_jpl_url": "http://ssd.jpl.nasa.gov/sbdb.cgi?sstr=3765700",
    "absolute_magnitude_h": 22.0,
    "estimated_diameter": {
        "kilometers": {
            "estimated_diameter_min": 0.1058168859,
            "estimated_diameter_max": 0.2366137501
        },
        "meters": {
            "estimated_diameter_min": 105.8168859331,
            "estimated_diameter_max": 236.6137501138
        },
        "miles": {
            "estimated_diameter_min": 0.0657515442,
            "estimated_diameter_max": 0.1470249225
        },
        "feet": {
            "estimated_diameter_min": 347.1682720448,
            "estimated_diameter_max": 776.2918559233
        }
    },
    "is_potentially_hazardous_asteroid": false,
    "close_approach_data": [
        {
            "close_approach_date": "2016-12-10",
            "close_approach_date_full": "2016-Dec-10 07:35",
            "epoch_date_close_approach": 1481355300000,
            "relative_velocity": {
                "kilometers_per_second": "12.9880034893",
                "kilometers_per_hour": "46756.8125614631",
                "miles_per_hour": "29052.8650052047"
            },
            "miss_distance": {
                "astronomical": "0.1905346632",
                "lunar": "74.1179839848",
                "kilometers": "28503579.775887384",
                "miles": "17711303.1886945392"
            },
            "orbiting_body": "Earth"
        },
        {
            "close_approach_date": "2018-11-09",
            "close_approach_date_full": "2018-Nov-09 23:39",
            "epoch_date_close_approach": 1541806740000,
            "relative_velocity": {
                "kilometers_per_second": "4.8732396857",
                "kilometers_per_hour": "17543.6628683954",
                "miles_per_hour": "10900.9498528649"
            },
            "miss_distance": {
                "astronomical": "1.8313213623",
                "lunar": "712.3840099347",
                "kilometers": "273961775.085578301",
                "miles": "170231953.2776145138"
            },
            "orbiting_body": "Juptr"
        },
        {
            "close_approach_date": "2131-12-20",
            "close_approach_date_full": "2131-Dec-20 15:43",
            "epoch_date_close_approach": 5111221380000,
            "relative_velocity": {
                "kilometers_per_second": "15.6512471777",
                "kilometers_per_hour": "56344.489839887",
                "miles_per_hour": "35010.2748119009"
            },
            "miss_distance": {
                "astronomical": "0.4115323048",
                "lunar": "160.0860665672",
                "kilometers": "61564356.234270776",
                "miles": "38254317.0877216688"
            },
            "orbiting_body": "Earth"
        },
        {
            "close_approach_date": "2181-12-03",
            "close_approach_date_full": "2181-Dec-03 03:15",
            "epoch_date_close_approach": 6687630900000,
            "relative_velocity": {
                "kilometers_per_second": "13.3992370944",
                "kilometers_per_hour": "48237.2535397446",
                "miles_per_hour": "29972.7534564041"
            },
            "miss_distance": {
                "astronomical": "0.1588414533",
                "lunar": "61.7893253337",
                "kilometers": "23762343.081384471",
                "miles": "14765235.3177128598"
            },
            "orbiting_body": "Earth"
        },
        {
            "close_approach_date": "2200-12-28",
            "close_approach_date_full": "2200-Dec-28 01:20",
            "epoch_date_close_approach": 7289313600000,
            "relative_velocity": {
                "kilometers_per_second": "17.0052542636",
                "kilometers_per_hour": "61218.9153490846",
                "miles_per_hour": "38039.0532623242"
            },
            "miss_distance": {
                "astronomical": "0.415054275",
                "lunar": "161.456112975",
                "kilometers": "62091235.47439425",
                "miles": "38581704.66637065"
            },
            "orbiting_body": "Earth"
        }
    ],
    "orbital_data": {
        "orbit_id": "7",
        "orbit_determination_date": "2017-04-06 08:21:35",
        "first_observation_date": "2016-12-06",
        "last_observation_date": "2017-01-06",
        "data_arc_in_days": 31,
        "observations_used": 44,
        "orbit_uncertainty": "6",
        "minimum_orbit_intersection": ".139777",
        "jupiter_tisserand_invariant": "3.199",
        "epoch_osculation": "2459000.5",
        "eccentricity": ".5414542177663074",
        "semi_major_axis": "2.452554613191029",
        "inclination": "21.04493403413527",
        "ascending_node_longitude": "74.71765028128132",
        "orbital_period": "1402.899166948951",
        "perihelion_distance": "1.124608573576532",
        "perihelion_argument": ".5084894044721071",
        "aphelion_distance": "3.780500652805527",
        "perihelion_time": "2459145.487416571542",
        "mean_anomaly": "322.7945677099012",
        "mean_motion": ".2566114575311454",
        "equinox": "J2000",
        "orbit_class": {
            "orbit_class_type": "AMO",
            "orbit_class_description": "Near-Earth asteroid orbits similar to that of 1221 Amor",
            "orbit_class_range": "1.017 AU < q (perihelion) < 1.3 AU"
        }
    },
    "is_sentry_object": false
}